[{"OBJECT_NAME":"HXMT (HUIYAN)","OBJECT_ID":"2017-034A","EPOCH":"2026-04-16T21:11:15.964224","MEAN_MOTION":15.1793708,"ECCENTRICITY":0.00304725,"INCLINATION":43.0131,"RA_OF_ASC_NODE":164.252,"ARG_OF_PERICENTER":117.4012,"MEAN_ANOMALY":242.9941,"EPHEMERIS_TYPE":0,"CLASSIFICATION_TYPE":"U","NORAD_CAT_ID":42758,"ELEMENT_SET_NO":999,"REV_AT_EPOCH":48834,"BSTAR":0.00015087312,"MEAN_MOTION_DOT":2.909e-5,"MEAN_MOTION_DDOT":0},{"OBJECT_NAME":"SAOCOM 1A","OBJECT_ID":"2018-076A","EPOCH":"2026-04-16T23:18:54.846432","MEAN_MOTION":14.82148953,"ECCENTRICITY":0.00014861,"INCLINATION":97.89,"RA_OF_ASC_NODE":294.6045,"ARG_OF_PERICENTER":89.8833,"MEAN_ANOMALY":270.255,"EPHEMERIS_TYPE":0,"CLASSIFICATION_TYPE":"U","NORAD_CAT_ID":43641,"ELEMENT_SET_NO":999,"REV_AT_EPOCH":40703,"BSTAR":5.6130293e-5,"MEAN_MOTION_DOT":3.95e-6,"MEAN_MOTION_DDOT":0},{"OBJECT_NAME":"H-2A R/B","OBJECT_ID":"2018-084L","EPOCH":"2026-04-16T21:13:42.601440","MEAN_MOTION":15.42925134,"ECCENTRICITY":0.00231066,"INCLINATION":98.8672,"RA_OF_ASC_NODE":332.4773,"ARG_OF_PERICENTER":249.0836,"MEAN_ANOMALY":110.7934,"EPHEMERIS_TYPE":0,"CLASSIFICATION_TYPE":"U","NORAD_CAT_ID":43682,"ELEMENT_SET_NO":999,"REV_AT_EPOCH":41166,"BSTAR":0.00024258027,"MEAN_MOTION_DOT":0.00010651,"MEAN_MOTION_DDOT":0},{"OBJECT_NAME":"SAOCOM 1B","OBJECT_ID":"2020-059A","EPOCH":"2026-04-16T22:26:41.419104","MEAN_MOTION":14.82160579,"ECCENTRICITY":0.00014468,"INCLINATION":97.8886,"RA_OF_ASC_NODE":293.6629,"ARG_OF_PERICENTER":85.76,"MEAN_ANOMALY":274.3778,"EPHEMERIS_TYPE":0,"CLASSIFICATION_TYPE":"U","NORAD_CAT_ID":46265,"ELEMENT_SET_NO":999,"REV_AT_EPOCH":30441,"BSTAR":6.5574923e-5,"MEAN_MOTION_DOT":4.7e-6,"MEAN_MOTION_DDOT":0},{"OBJECT_NAME":"CSS (TIANHE)","OBJECT_ID":"2021-035A","EPOCH":"2026-04-16T18:25:16.660416","MEAN_MOTION":15.62454512,"ECCENTRICITY":0.00058884,"INCLINATION":41.4683,"RA_OF_ASC_NODE":336.1456,"ARG_OF_PERICENTER":221.8434,"MEAN_ANOMALY":138.1956,"EPHEMERIS_TYPE":0,"CLASSIFICATION_TYPE":"U","NORAD_CAT_ID":48274,"ELEMENT_SET_NO":999,"REV_AT_EPOCH":28356,"BSTAR":0.00017822222,"MEAN_MOTION_DOT":0.00015996,"MEAN_MOTION_DDOT":0},{"OBJECT_NAME":"COSMOS 2550","OBJECT_ID":"2021-056A","EPOCH":"2026-04-16T14:21:54.644832","MEAN_MOTION":15.3382762,"ECCENTRICITY":0.00084127,"INCLINATION":67.1399,"RA_OF_ASC_NODE":286.2093,"ARG_OF_PERICENTER":269.1949,"MEAN_ANOMALY":90.8242,"EPHEMERIS_TYPE":0,"CLASSIFICATION_TYPE":"U","NORAD_CAT_ID":48865,"ELEMENT_SET_NO":999,"REV_AT_EPOCH":26927,"BSTAR":-1.48782e-7,"MEAN_MOTION_DOT":-1.97e-6,"MEAN_MOTION_DDOT":0},{"OBJECT_NAME":"CZ-2C R/B","OBJECT_ID":"2022-058K","EPOCH":"2026-04-16T12:54:38.588832","MEAN_MOTION":15.57059349,"ECCENTRICITY":0.00402575,"INCLINATION":50.1857,"RA_OF_ASC_NODE":123.1691,"ARG_OF_PERICENTER":2.8425,"MEAN_ANOMALY":357.2768,"EPHEMERIS_TYPE":0,"CLASSIFICATION_TYPE":"U","NORAD_CAT_ID":52794,"ELEMENT_SET_NO":999,"REV_AT_EPOCH":21602,"BSTAR":0.00033203112,"MEAN_MOTION_DOT":0.00025006,"MEAN_MOTION_DDOT":0},{"OBJECT_NAME":"CZ-2C R/B","OBJECT_ID":"2022-132E","EPOCH":"2026-04-16T13:50:09.164544","MEAN_MOTION":15.65432504,"ECCENTRICITY":0.00133698,"INCLINATION":97.2935,"RA_OF_ASC_NODE":111.1486,"ARG_OF_PERICENTER":314.1438,"MEAN_ANOMALY":45.8721,"EPHEMERIS_TYPE":0,"CLASSIFICATION_TYPE":"U","NORAD_CAT_ID":54039,"ELEMENT_SET_NO":999,"REV_AT_EPOCH":19629,"BSTAR":0.00027900548,"MEAN_MOTION_DOT":0.00027884,"MEAN_MOTION_DDOT":0},{"OBJECT_NAME":"GSLV R/B","OBJECT_ID":"2022-138AN","EPOCH":"2026-04-16T18:12:12.822336","MEAN_MOTION":14.96994988,"ECCENTRICITY":0.00220749,"INCLINATION":87.383,"RA_OF_ASC_NODE":153.6105,"ARG_OF_PERICENTER":20.1749,"MEAN_ANOMALY":340.035,"EPHEMERIS_TYPE":0,"CLASSIFICATION_TYPE":"U","NORAD_CAT_ID":54149,"ELEMENT_SET_NO":999,"REV_AT_EPOCH":18962,"BSTAR":0.00011373123,"MEAN_MOTION_DOT":1.343e-5,"MEAN_MOTION_DDOT":0},{"OBJECT_NAME":"XRISM","OBJECT_ID":"2023-137A","EPOCH":"2026-04-16T05:02:43.827936","MEAN_MOTION":15.11920098,"ECCENTRICITY":0.000751,"INCLINATION":31.0028,"RA_OF_ASC_NODE":40.8937,"ARG_OF_PERICENTER":56.8343,"MEAN_ANOMALY":303.3015,"EPHEMERIS_TYPE":0,"CLASSIFICATION_TYPE":"U","NORAD_CAT_ID":57800,"ELEMENT_SET_NO":999,"REV_AT_EPOCH":14347,"BSTAR":0.00016955,"MEAN_MOTION_DOT":3.075e-5,"MEAN_MOTION_DDOT":0},{"OBJECT_NAME":"ACS3","OBJECT_ID":"2024-077B","EPOCH":"2026-04-16T18:41:26.304288","MEAN_MOTION":13.91395048,"ECCENTRICITY":0.00715256,"INCLINATION":97.1893,"RA_OF_ASC_NODE":39.3362,"ARG_OF_PERICENTER":357.4499,"MEAN_ANOMALY":2.6291,"EPHEMERIS_TYPE":0,"CLASSIFICATION_TYPE":"U","NORAD_CAT_ID":59588,"ELEMENT_SET_NO":999,"REV_AT_EPOCH":9949,"BSTAR":0.031593788,"MEAN_MOTION_DOT":0.00040927,"MEAN_MOTION_DDOT":0},{"OBJECT_NAME":"HTV-X1","OBJECT_ID":"2025-241A","EPOCH":"2026-04-16T17:35:14.499744","MEAN_MOTION":15.32663502,"ECCENTRICITY":0.00075542,"INCLINATION":51.6355,"RA_OF_ASC_NODE":249.6151,"ARG_OF_PERICENTER":320.0869,"MEAN_ANOMALY":39.9556,"EPHEMERIS_TYPE":0,"CLASSIFICATION_TYPE":"U","NORAD_CAT_ID":66174,"ELEMENT_SET_NO":999,"REV_AT_EPOCH":2677,"BSTAR":0.00016847493,"MEAN_MOTION_DOT":5.028e-5,"MEAN_MOTION_DDOT":0},{"OBJECT_NAME":"SZ-21 MODULE","OBJECT_ID":"2025-246C","EPOCH":"2026-04-15T23:11:02.179680","MEAN_MOTION":15.71515739,"ECCENTRICITY":0.00044703,"INCLINATION":41.4747,"RA_OF_ASC_NODE":333.3787,"ARG_OF_PERICENTER":276.9705,"MEAN_ANOMALY":83.0629,"EPHEMERIS_TYPE":0,"CLASSIFICATION_TYPE":"U","NORAD_CAT_ID":66515,"ELEMENT_SET_NO":999,"REV_AT_EPOCH":2393,"BSTAR":0.00019750179,"MEAN_MOTION_DOT":0.00025807,"MEAN_MOTION_DDOT":0}]
